start=new Date('2022-02-26T00:00:00.000Z').valueOf();
sats=[{"ECCENTRICITY":"0.00015080","OBJECT_NAME":"STARLINK-1243","REF_FRAME":"TEME","RA_OF_ASC_NODE":"178.8562","LAUNCH_DATE":"2020-02-17","NORAD_CAT_ID":"45234","RCS_SIZE":"LARGE","SEMIMAJOR_AXIS":"6925.366","MEAN_MOTION_DOT":"0.00002013","INCLINATION":"53.0560","MEAN_MOTION_DDOT":"0.0000000000000","FILE":"3323947","APOAPSIS":"548.276","ELEMENT_SET_NO":"999","CENTER_NAME":"EARTH","GP_ID":"197031135","OBJECT_ID":"2020-012BJ","EPOCH":"2022-02-25T18:10:50.018304","REV_AT_EPOCH":"11280","COUNTRY_CODE":"US","EPHEMERIS_TYPE":"0","MEAN_MOTION":"15.06394257","BSTAR":"0.00015399000000","OBJECT_TYPE":"PAYLOAD","MEAN_ELEMENT_THEORY":"SGP4","PERIOD":"95.593","CLASSIFICATION_TYPE":"U","SITE":"AFETR","DECAY_DATE":null,"MEAN_ANOMALY":"285.5200","ARG_OF_PERICENTER":"74.5956","TIME_SYSTEM":"UTC","PERIAPSIS":"546.187","TLE_LINE2":"2 45234  53.0560 178.8562 0001508  74.5956 285.5200 15.06394257112802","TLE_LINE1":"1 45234U 20012BJ  22056.75752336  .00002013  00000-0  15399-3 0  9992"},{"TLE_LINE2":"2 45235  53.0532 179.5363 0001563  67.2143 292.9011 15.06396909112838","PERIAPSIS":"546.141","TLE_LINE1":"1 45235U 20012BK  22056.61008567  .00000828  00000-0  74453-4 0  9997","TIME_SYSTEM":"UTC","DECAY_DATE":null,"ARG_OF_PERICENTER":"67.2143","MEAN_ANOMALY":"292.9011","PERIOD":"95.592","SITE":"AFETR","CLASSIFICATION_TYPE":"U","EPHEMERIS_TYPE":"0","COUNTRY_CODE":"US","REV_AT_EPOCH":"11283","MEAN_ELEMENT_THEORY":"SGP4","OBJECT_TYPE":"PAYLOAD","BSTAR":"0.00007445300000","MEAN_MOTION":"15.06396909","CENTER_NAME":"EARTH","EPOCH":"2022-02-25T14:38:31.401888","OBJECT_ID":"2020-012BK","GP_ID":"197029384","MEAN_MOTION_DDOT":"0.0000000000000","MEAN_MOTION_DOT":"0.00000828","INCLINATION":"53.0532","SEMIMAJOR_AXIS":"6925.358","RCS_SIZE":"LARGE","ELEMENT_SET_NO":"999","FILE":"3323947","APOAPSIS":"548.305","REF_FRAME":"TEME","ECCENTRICITY":"0.00015630","OBJECT_NAME":"STARLINK-1246","NORAD_CAT_ID":"45235","RA_OF_ASC_NODE":"179.5363","LAUNCH_DATE":"2020-02-17"},{"RA_OF_ASC_NODE":"139.6061","LAUNCH_DATE":"2020-02-17","NORAD_CAT_ID":"45236","ECCENTRICITY":"0.00016500","OBJECT_NAME":"STARLINK-1247","REF_FRAME":"TEME","FILE":"3323947","APOAPSIS":"548.370","ELEMENT_SET_NO":"999","MEAN_MOTION_DOT":"0.00000172","INCLINATION":"53.0537","SEMIMAJOR_AXIS":"6925.362","RCS_SIZE":"LARGE","MEAN_MOTION_DDOT":"0.0000000000000","GP_ID":"197029634","EPOCH":"2022-02-25T14:11:59.558784","OBJECT_ID":"2020-012BL","CENTER_NAME":"EARTH","MEAN_MOTION":"15.06395466","MEAN_ELEMENT_THEORY":"SGP4","OBJECT_TYPE":"PAYLOAD","BSTAR":"0.00003043200000","COUNTRY_CODE":"US","EPHEMERIS_TYPE":"0","REV_AT_EPOCH":"11336","SITE":"AFETR","CLASSIFICATION_TYPE":"U","PERIOD":"95.592","MEAN_ANOMALY":"310.8627","ARG_OF_PERICENTER":"49.2505","DECAY_DATE":null,"TIME_SYSTEM":"UTC","TLE_LINE1":"1 45236U 20012BL  22056.59166156  .00000172  00000-0  30432-4 0  9995","PERIAPSIS":"546.085","TLE_LINE2":"2 45236  53.0537 139.6061 0001650  49.2505 310.8627 15.06395466113364"},{"TLE_LINE1":"1 45237U 20012BM  22056.61376582 -.00007615  00000-0 -49233-3 0  9994","PERIAPSIS":"546.038","TLE_LINE2":"2 45237  53.0551 139.5291 0001529  58.0896 302.0242 15.06438057113372","TIME_SYSTEM":"UTC","MEAN_ANOMALY":"302.0242","ARG_OF_PERICENTER":"58.0896","DECAY_DATE":null,"SITE":"AFETR","CLASSIFICATION_TYPE":"U","PERIOD":"95.590","MEAN_MOTION":"15.06438057","OBJECT_TYPE":"PAYLOAD","MEAN_ELEMENT_THEORY":"SGP4","BSTAR":"-0.00049233000000","EPHEMERIS_TYPE":"0","COUNTRY_CODE":"US","REV_AT_EPOCH":"11337","GP_ID":"197030880","EPOCH":"2022-02-25T14:43:49.366848","OBJECT_ID":"2020-012BM","CENTER_NAME":"EARTH","APOAPSIS":"548.156","FILE":"3323947","ELEMENT_SET_NO":"999","INCLINATION":"53.0551","MEAN_MOTION_DOT":"-0.00007615","SEMIMAJOR_AXIS":"6925.232","RCS_SIZE":"LARGE","MEAN_MOTION_DDOT":"0.0000000000000","LAUNCH_DATE":"2020-02-17","RA_OF_ASC_NODE":"139.5291","NORAD_CAT_ID":"45237","ECCENTRICITY":"0.00015290","OBJECT_NAME":"STARLINK-1270","REF_FRAME":"TEME"},{"EPOCH":"2022-02-25T21:41:50.609472","OBJECT_ID":"2020-019A","GP_ID":"196998698","CENTER_NAME":"EARTH","MEAN_ELEMENT_THEORY":"SGP4","OBJECT_TYPE":"PAYLOAD","BSTAR":"0.00001077200000","MEAN_MOTION":"15.06391673","EPHEMERIS_TYPE":"0","COUNTRY_CODE":"US","REV_AT_EPOCH":"10815","NORAD_CAT_ID":"45360","LAUNCH_DATE":"2020-03-18","RA_OF_ASC_NODE":"268.2105","REF_FRAME":"TEME","ECCENTRICITY":"0.00017670","OBJECT_NAME":"STARLINK-1279","ELEMENT_SET_NO":"999","APOAPSIS":"548.463","FILE":"3323437","MEAN_MOTION_DDOT":"0.0000000000000","INCLINATION":"53.0542","MEAN_MOTION_DOT":"-0.00000121","SEMIMAJOR_AXIS":"6925.374","RCS_SIZE":"LARGE","TIME_SYSTEM":"UTC","TLE_LINE1":"1 45360U 20019A   22056.90405798 -.00000121  00000-0  10772-4 0  9993","TLE_LINE2":"2 45360  53.0542 268.2105 0001767  72.9977 287.1206 15.06391673108157","PERIAPSIS":"546.015","SITE":"AFETR","CLASSIFICATION_TYPE":"U","PERIOD":"95.593","ARG_OF_PERICENTER":"72.9977","MEAN_ANOMALY":"287.1206","DECAY_DATE":null},{"TLE_LINE2":"2 45361  53.0544 278.2645 0001459  75.1519 284.9631 15.06401678108025","PERIAPSIS":"546.198","TLE_LINE1":"1 45361U 20019B   22056.89206362  .00000357  00000-0  42854-4 0  9994","TIME_SYSTEM":"UTC","DECAY_DATE":null,"ARG_OF_PERICENTER":"75.1519","MEAN_ANOMALY":"284.9631","PERIOD":"95.592","CLASSIFICATION_TYPE":"U","SITE":"AFETR","REV_AT_EPOCH":"10802","EPHEMERIS_TYPE":"0","COUNTRY_CODE":"US","BSTAR":"0.00004285400000","OBJECT_TYPE":"PAYLOAD","MEAN_ELEMENT_THEORY":"SGP4","MEAN_MOTION":"15.06401678","CENTER_NAME":"EARTH","OBJECT_ID":"2020-019B","EPOCH":"2022-02-25T21:24:34.296768","GP_ID":"197030394","MEAN_MOTION_DDOT":"0.0000000000000","RCS_SIZE":"LARGE","SEMIMAJOR_AXIS":"6925.343","MEAN_MOTION_DOT":"0.00000357","INCLINATION":"53.0544","ELEMENT_SET_NO":"999","FILE":"3323947","APOAPSIS":"548.219","REF_FRAME":"TEME","ECCENTRICITY":"0.00014590","OBJECT_NAME":"STARLINK-1301","NORAD_CAT_ID":"45361","RA_OF_ASC_NODE":"278.2645","LAUNCH_DATE":"2020-03-18"},{"TIME_SYSTEM":"UTC","TLE_LINE1":"1 45362U 20019C   22056.80544861  .00000989  00000-0  85289-4 0  9995","TLE_LINE2":"2 45362  53.0546 298.6517 0001550  65.3035 294.8115 15.06393611107728","PERIAPSIS":"546.160","CLASSIFICATION_TYPE":"U","SITE":"AFETR","PERIOD":"95.593","ARG_OF_PERICENTER":"65.3035","MEAN_ANOMALY":"294.8115","DECAY_DATE":null,"OBJECT_ID":"2020-019C","EPOCH":"2022-02-25T19:19:50.759904","GP_ID":"197031149","CENTER_NAME":"EARTH","BSTAR":"0.00008528900000","MEAN_ELEMENT_THEORY":"SGP4","OBJECT_TYPE":"PAYLOAD","MEAN_MOTION":"15.06393611","REV_AT_EPOCH":"10772","COUNTRY_CODE":"US","EPHEMERIS_TYPE":"0","NORAD_CAT_ID":"45362","RA_OF_ASC_NODE":"298.6517","LAUNCH_DATE":"2020-03-18","REF_FRAME":"TEME","ECCENTRICITY":"0.00015500","OBJECT_NAME":"STARLINK-1306","ELEMENT_SET_NO":"999","FILE":"3323947","APOAPSIS":"548.307","MEAN_MOTION_DDOT":"0.0000000000000","RCS_SIZE":"LARGE","SEMIMAJOR_AXIS":"6925.368","MEAN_MOTION_DOT":"0.00000989","INCLINATION":"53.0546"},{"TLE_LINE2":"2 45364  53.0542 268.2321 0001584  70.1775 289.9384 15.06394482108152","PERIAPSIS":"546.133","TLE_LINE1":"1 45364U 20019E   22056.90036315  .00002465  00000-0  18433-3 0  9995","TIME_SYSTEM":"UTC","DECAY_DATE":null,"ARG_OF_PERICENTER":"70.1775","MEAN_ANOMALY":"289.9384","PERIOD":"95.592","SITE":"AFETR","CLASSIFICATION_TYPE":"U","EPHEMERIS_TYPE":"0","COUNTRY_CODE":"US","REV_AT_EPOCH":"10815","OBJECT_TYPE":"PAYLOAD","MEAN_ELEMENT_THEORY":"SGP4","BSTAR":"0.00018433000000","MEAN_MOTION":"15.06394482","CENTER_NAME":"EARTH","EPOCH":"2022-02-25T21:36:31.376160","OBJECT_ID":"2020-019E","GP_ID":"197029398","MEAN_MOTION_DDOT":"0.0000000000000","MEAN_MOTION_DOT":"0.00002465","INCLINATION":"53.0542","RCS_SIZE":"LARGE","SEMIMAJOR_AXIS":"6925.365","ELEMENT_SET_NO":"999","APOAPSIS":"548.327","FILE":"3323947","REF_FRAME":"TEME","OBJECT_NAME":"STARLINK-1313","ECCENTRICITY":"0.00015840","NORAD_CAT_ID":"45364","RA_OF_ASC_NODE":"268.2321","LAUNCH_DATE":"2020-03-18"},{"GP_ID":"197000884","EPOCH":"2022-02-25T21:56:25.437984","OBJECT_ID":"2020-019F","CENTER_NAME":"EARTH","MEAN_MOTION":"15.05580814","MEAN_ELEMENT_THEORY":"SGP4","OBJECT_TYPE":"PAYLOAD","BSTAR":"0.00004070700000","COUNTRY_CODE":"US","EPHEMERIS_TYPE":"0","REV_AT_EPOCH":"10798","LAUNCH_DATE":"2020-03-18","RA_OF_ASC_NODE":"278.1814","NORAD_CAT_ID":"45365","ECCENTRICITY":"0.00015580","OBJECT_NAME":"STARLINK-1317","REF_FRAME":"TEME","FILE":"3323524","APOAPSIS":"550.805","ELEMENT_SET_NO":"999","MEAN_MOTION_DOT":"0.00000314","INCLINATION":"52.9987","SEMIMAJOR_AXIS":"6927.860","RCS_SIZE":"LARGE","MEAN_MOTION_DDOT":"0.0000000000000","TIME_SYSTEM":"UTC","TLE_LINE1":"1 45365U 20019F   22056.91418331  .00000314  00000-0  40707-4 0  9990","PERIAPSIS":"548.646","TLE_LINE2":"2 45365  52.9987 278.1814 0001558  66.8602 293.2550 15.05580814107981","SITE":"AFETR","CLASSIFICATION_TYPE":"U","PERIOD":"95.644","MEAN_ANOMALY":"293.2550","ARG_OF_PERICENTER":"66.8602","DECAY_DATE":null},{"CLASSIFICATION_TYPE":"U","SITE":"AFETR","PERIOD":"95.592","ARG_OF_PERICENTER":"70.6955","MEAN_ANOMALY":"289.4222","DECAY_DATE":null,"TIME_SYSTEM":"UTC","TLE_LINE1":"1 45366U 20019G   22056.85705278  .00005687  00000-0  40031-3 0  9990","TLE_LINE2":"2 45366  53.0537 298.4137 0001742  70.6955 289.4222 15.06404170107745","PERIAPSIS":"545.994","NORAD_CAT_ID":"45366","LAUNCH_DATE":"2020-03-18","RA_OF_ASC_NODE":"298.4137","REF_FRAME":"TEME","ECCENTRICITY":"0.00017420","OBJECT_NAME":"STARLINK-1262","ELEMENT_SET_NO":"999","APOAPSIS":"548.407","FILE":"3323947","MEAN_MOTION_DDOT":"0.0000000000000","RCS_SIZE":"LARGE","SEMIMAJOR_AXIS":"6925.336","INCLINATION":"53.0537","MEAN_MOTION_DOT":"0.00005687","OBJECT_ID":"2020-019G","EPOCH":"2022-02-25T20:34:09.360192","GP_ID":"197030894","CENTER_NAME":"EARTH","BSTAR":"0.00040031000000","MEAN_ELEMENT_THEORY":"SGP4","OBJECT_TYPE":"PAYLOAD","MEAN_MOTION":"15.06404170","REV_AT_EPOCH":"10774","EPHEMERIS_TYPE":"0","COUNTRY_CODE":"US"}];
